NORAD_CAT_ID,OBJECT_NAME,OBJECT_TYPE,EPOCH,MEAN_MOTION,ECCENTRICITY,INCLINATION,RA_OF_ASC_NODE,ARG_OF_PERICENTER,MEAN_ANOMALY,BSTAR,MEAN_MOTION_DOT,MEAN_MOTION_DDOT,TLE_LINE0,TLE_LINE1,TLE_LINE2,SEMIMAJOR_AXIS,PERIOD,APOGEE,PERIGEE,DECAYED
55769.0,STARLINK-5584,PAYLOAD,2023-05-04 21:01:38,15.69969899,0.0003412,69.9988,340.5516,269.2847,90.7957,-4.6461e-05,-5.806e-05,0.0,0 STARLINK-5584,1 55769U 23028AE  23124.87614081 -.00005806  00000-0 -46461-4 0  9990,2 55769  69.9988 340.5516 0003412 269.2847  90.7957 15.69969899 10420,6737.12,91.722,361.284,356.686,0.0
55769.0,STARLINK-5584,PAYLOAD,2023-05-04 22:33:23,15.69977818,0.000335,69.9971,340.3744,260.9043,99.1774,-7.3619e-05,-9.075e-05,0.0,0 STARLINK-5584,1 55769U 23028AE  23124.93985465 -.00009075  00000-0 -73619-4 0  9991,2 55769  69.9971 340.3744 0003350 260.9043  99.1774 15.69977818 10420,6737.097,91.721,361.219,356.706,0.0
55769.0,STARLINK-5584,PAYLOAD,2023-05-05 16:54:27,15.6990659,0.0003508,69.9972,338.2239,262.0008,98.079,2.5491e-05,2.851e-05,0.0,0 STARLINK-5584,1 55769U 23028AE  23125.70448898  .00002851  00000-0  25491-4 0  9999,2 55769  69.9972 338.2239 0003508 262.0008  98.0790 15.69906590 10543,6737.301,91.725,361.53,356.803,0.0
55769.0,STARLINK-5584,PAYLOAD,2023-05-06 00:33:12,15.69937673,0.0003348,69.9963,337.3262,262.0431,98.0385,-3.7532e-06,-6.64e-06,0.0,0 STARLINK-5584,1 55769U 23028AE  23126.02305863 -.00000664  00000-0 -37532-5 0  9991,2 55769  69.9963 337.3262 0003348 262.0431  98.0385 15.69937673 10592,6737.212,91.723,361.333,356.822,0.0
55769.0,STARLINK-5584,PAYLOAD,2023-05-06 15:50:42,15.69929541,0.0003329,69.997,335.535,258.1753,101.907,2.0399e-05,2.241e-05,0.0,0 STARLINK-5584,1 55769U 23028AE  23126.66021681  .00002241  00000-0  20399-4 0  9997,2 55769  69.9970 335.5350 0003329 258.1753 101.9070 15.69929541 10703,6737.236,91.724,361.343,356.858,0.0
55769.0,STARLINK-5584,PAYLOAD,2023-05-06 23:29:29,15.69915993,0.0003406,69.9966,334.6415,262.1437,97.9372,-6.6188e-06,-1.008e-05,0.0,0 STARLINK-5584,1 55769U 23028AE  23126.97881357 -.00001008  00000-0 -66188-5 0  9994,2 55769  69.9966 334.6415 0003406 262.1437  97.9372 15.69915993 10749,6737.274,91.725,361.434,356.845,0.0
55769.0,STARLINK-5584,PAYLOAD,2023-05-07 16:18:46,15.699175,0.0002599,69.9973,332.6675,253.1768,106.9143,-6.8005e-06,-1.03e-05,0.0,0 STARLINK-5584,1 55769U 23028AE  23127.67970080 -.00001030  00000-0 -68005-5 0  9999,2 55769  69.9973 332.6675 0002599 253.1768 106.9143 15.69917500 10868,6737.27,91.725,360.886,357.384,0.0
55769.0,STARLINK-5584,PAYLOAD,2023-05-07 22:25:45,15.69925187,0.0002762,69.9976,331.9533,251.058,109.0317,1.3265e-05,1.383e-05,0.0,0 STARLINK-5584,1 55769U 23028AE  23127.93455976  .00001383  00000-0  13265-4 0  9996,2 55769  69.9976 331.9533 0002762 251.0580 109.0317 15.69925187 10897,6737.248,91.724,360.974,357.252,0.0
55769.0,STARLINK-5584,PAYLOAD,2023-05-08 19:50:16,15.69938439,0.0003369,69.9971,329.4451,265.2471,94.834,6.4809e-06,5.67e-06,0.0,0 STARLINK-5584,1 55769U 23028AE  23128.82658367  .00000567  00000-0  64809-5 0  9998,2 55769  69.9971 329.4451 0003369 265.2471  94.8340 15.69938439 11031,6737.21,91.723,361.345,356.805,0.0
55769.0,STARLINK-5584,PAYLOAD,2023-05-08 21:22:02,15.69936874,0.0003491,69.9973,329.2666,265.7339,94.3458,5.1031e-06,4.01e-06,0.0,0 STARLINK-5584,1 55769U 23028AE  23128.89030128  .00000401  00000-0  51031-5 0  9994,2 55769  69.9973 329.2666 0003491 265.7339  94.3458 15.69936874 11051,6737.215,91.723,361.432,356.728,0.0
55769.0,STARLINK-5584,PAYLOAD,2023-05-09 14:11:19,15.69924951,0.0003537,69.9958,327.2932,266.8642,93.2149,-5.4128e-07,-2.78e-06,0.0,0 STARLINK-5584,1 55769U 23028AE  23129.59119551 -.00000278  00000-0 -54128-6 0  9995,2 55769  69.9958 327.2932 0003537 266.8642  93.2149 15.69924951 11168,6737.249,91.724,361.497,356.731,0.0
55769.0,STARLINK-5584,PAYLOAD,2023-05-09 23:21:49,15.69930003,0.0003623,69.997,326.2223,266.6516,93.4265,3.4444e-06,2.01e-06,0.0,0 STARLINK-5584,1 55769U 23028AE  23129.97349106  .00000201  00000-0  34444-5 0  9990,2 55769  69.9970 326.2223 0003623 266.6516  93.4265 15.69930003 11221,6737.234,91.724,361.54,356.658,0.0
55769.0,STARLINK-5584,PAYLOAD,2023-05-10 19:14:35,15.69935622,0.0003477,69.9962,323.8897,265.9,94.1798,1.1985e-05,1.229e-05,0.0,0 STARLINK-5584,1 55769U 23028AE  23130.80180275  .00001229  00000-0  11985-4 0  9999,2 55769  69.9962 323.8897 0003477 265.9000  94.1798 15.69935622 11354,6737.218,91.724,361.426,356.741,0.0
55769.0,STARLINK-5584,PAYLOAD,2023-05-11 05:56:53,15.69915041,0.000324,69.9974,322.6382,270.4975,89.5849,-2.2162e-07,-2.39e-06,0.0,0 STARLINK-5584,1 55769U 23028AE  23131.24783656 -.00000239  00000-0 -22162-6 0  9993,2 55769  69.9974 322.6382 0003240 270.4975  89.5849 15.69915041 11418,6737.277,91.725,361.325,356.959,0.0
55769.0,STARLINK-5584,PAYLOAD,2023-05-11 15:07:23,15.69913827,0.0003218,69.9977,321.5624,270.3936,89.6891,1.0443e-05,1.043e-05,0.0,0 STARLINK-5584,1 55769U 23028AE  23131.63013698  .00001043  00000-0  10443-4 0  9997,2 55769  69.9977 321.5624 0003218 270.3936  89.6891 15.69913827 11484,6737.281,91.725,361.314,356.977,0.0
55769.0,STARLINK-5584,PAYLOAD,2023-05-11 21:14:23,15.69924926,0.000315,69.9974,320.8466,270.0388,90.0447,2.1564e-05,2.381e-05,0.0,0 STARLINK-5584,1 55769U 23028AE  23131.88499622  .00002381  00000-0  21564-4 0  9991,2 55769  69.9974 320.8466 0003150 270.0388  90.0447 15.69924926 11519,6737.249,91.724,361.236,356.992,0.0
55769.0,STARLINK-5584,PAYLOAD,2023-05-11 22:46:08,15.69930324,0.0003621,69.9959,320.6672,256.6396,103.4396,1.2993e-05,1.35e-05,0.0,0 STARLINK-5584,1 55769U 23028AE  23131.94870918  .00001350  00000-0  12993-4 0  9990,2 55769  69.9959 320.6672 0003621 256.6396 103.4396 15.69930324 11534,6737.233,91.724,361.538,356.659,0.0
55769.0,STARLINK-5584,PAYLOAD,2023-05-12 20:10:40,15.69933788,0.0003392,69.9969,318.1587,274.1435,85.9373,5.3742e-06,4.34e-06,0.0,0 STARLINK-5584,1 55769U 23028AE  23132.84074342  .00000434  00000-0  53742-5 0  9997,2 55769  69.9969 318.1587 0003392 274.1435  85.9373 15.69933788 11677,6737.223,91.724,361.374,356.803,0.0
55769.0,STARLINK-5584,PAYLOAD,2023-05-12 21:42:25,15.69934794,0.0003282,69.997,317.9791,273.3006,86.7814,7.2489e-06,6.59e-06,0.0,0 STARLINK-5584,1 55769U 23028AE  23132.90445880  .00000659  00000-0  72489-5 0  9991,2 55769  69.9970 317.9791 0003282 273.3006  86.7814 15.69934794 11673,6737.221,91.724,361.297,356.874,0.0
55769.0,STARLINK-5584,PAYLOAD,2023-05-13 11:28:12,15.69915812,0.0003217,69.9994,316.3719,254.1201,105.964,9.2987e-06,9.05e-06,0.0,0 STARLINK-5584,1 55769U 23028AE  23133.47792191  .00000905  00000-0  92987-5 0  9993,2 55769  69.9994 316.3719 0003217 254.1201 105.9640 15.69915812 11765,6737.275,91.725,361.307,356.972,0.0
55769.0,STARLINK-5584,PAYLOAD,2023-05-13 12:59:57,15.69912942,0.0003293,69.9997,316.1932,252.5509,107.5326,5.6333e-06,4.64e-06,0.0,0 STARLINK-5584,1 55769U 23028AE  23133.54164108  .00000464  00000-0  56333-5 0  9997,2 55769  69.9997 316.1932 0003293 252.5509 107.5326 15.69912942 11782,6737.283,91.725,361.367,356.929,0.0
55769.0,STARLINK-5584,PAYLOAD,2023-05-13 20:38:42,15.69922637,0.0003469,69.9976,315.295,252.9445,107.137,-7.6937e-07,-3.05e-06,0.0,0 STARLINK-5584,1 55769U 23028AE  23133.86021984 -.00000305  00000-0 -76937-6 0  9995,2 55769  69.9976 315.2950 0003469 252.9445 107.1370 15.69922637 11830,6737.255,91.724,361.457,356.783,0.0
55769.0,STARLINK-5584,PAYLOAD,2023-05-13 22:10:27,15.69930144,0.0003585,69.9974,315.1173,256.9534,103.1262,4.6154e-06,3.42e-06,0.0,0 STARLINK-5584,1 55769U 23028AE  23133.92393122  .00000342  00000-0  46154-5 0  9994,2 55769  69.9974 315.1173 0003585 256.9534 103.1262 15.69930144 11834,6737.234,91.724,361.514,356.684,0.0
55769.0,STARLINK-5584,PAYLOAD,2023-05-14 13:27:58,15.69930201,0.0003113,69.9984,313.3227,267.2321,92.8519,1.639e-05,1.759e-05,0.0,0 STARLINK-5584,1 55769U 23028AE  23134.56109437  .00001759  00000-0  16390-4 0  9990,2 55769  69.9984 313.3227 0003113 267.2321  92.8519 15.69930201 11946,6737.234,91.724,361.196,357.001,0.0
55769.0,STARLINK-5584,PAYLOAD,2023-05-14 21:06:44,15.69932197,0.0003684,69.9967,312.4273,257.4746,102.6038,-6.1499e-06,-9.53e-06,0.0,0 STARLINK-5584,1 55769U 23028AE  23134.87967854 -.00000953  00000-0 -61499-5 0  9997,2 55769  69.9967 312.4273 0003684 257.4746 102.6038 15.69932197 11990,6737.228,91.724,361.575,356.611,0.0
55769.0,STARLINK-5584,PAYLOAD,2023-05-15 10:52:31,15.69905948,0.00038,69.9968,310.8139,261.3637,98.7128,1.2995e-05,1.349e-05,0.0,0 STARLINK-5584,1 55769U 23028AE  23135.45314219  .00001349  00000-0  12995-4 0  9997,2 55769  69.9968 310.8139 0003800 261.3637  98.7128 15.69905948 12076,6737.303,91.725,361.728,356.608,0.0
55769.0,STARLINK-5584,PAYLOAD,2023-05-15 12:24:16,15.69903613,0.0003832,69.9972,310.6344,261.1103,98.9659,1.1693e-05,1.192e-05,0.0,0 STARLINK-5584,1 55769U 23028AE  23135.51686076  .00001192  00000-0  11693-4 0  9997,2 55769  69.9972 310.6344 0003832 261.1103  98.9659 15.69903613 12098,6737.31,91.725,361.756,356.593,0.0
55769.0,STARLINK-5584,PAYLOAD,2023-05-15 18:31:17,15.69912031,0.0003776,69.998,309.9197,257.8936,102.1837,9.9106e-06,9.78e-06,0.0,0 STARLINK-5584,1 55769U 23028AE  23135.77172539  .00000978  00000-0  99106-5 0  9996,2 55769  69.9980 309.9197 0003776 257.8936 102.1837 15.69912031 12132,6737.286,91.725,361.695,356.607,0.0
55769.0,STARLINK-5584,PAYLOAD,2023-05-16 05:13:32,15.69927975,0.0003653,69.9987,308.663,260.64,99.4382,4.0031e-06,2.68e-06,0.0,0 STARLINK-5584,1 55769U 23028AE  23136.21773310  .00000268  00000-0  40031-5 0  9995,2 55769  69.9987 308.6630 0003653 260.6400  99.4382 15.69927975 12191,6737.24,91.724,361.566,356.644,0.0
55769.0,STARLINK-5584,PAYLOAD,2023-05-16 12:52:17,15.69934245,0.0003567,69.9984,307.7672,260.7142,99.365,2.7101e-06,1.13e-06,0.0,0 STARLINK-5584,1 55769U 23028AE  23136.53631222  .00000113  00000-0  27101-5 0  9997,2 55769  69.9984 307.7672 0003567 260.7142  99.3650 15.69934245 12254,6737.222,91.724,361.49,356.684,0.0
